start=new Date('2023-06-23T00:00:00.000Z').valueOf();
sats=[{"RA_OF_ASC_NODE":"102.4504","PERIOD":"95.438","REF_FRAME":"TEME","TLE_LINE1":"1 54088U 22136AP  23173.81152922  .00000079  00000-0  23046-4 0  9990","DECAY_DATE":null,"ELEMENT_SET_NO":"999","CLASSIFICATION_TYPE":"U","SEMIMAJOR_AXIS":"6917.880","NORAD_CAT_ID":"54088","OBJECT_NAME":"STARLINK-5153","LAUNCH_DATE":"2022-10-20","APOAPSIS":"540.626","MEAN_MOTION_DOT":"0.00000079","PERIAPSIS":"538.865","TIME_SYSTEM":"UTC","COUNTRY_CODE":"US","REV_AT_EPOCH":"3786","GP_ID":"234465634","RCS_SIZE":"LARGE","INCLINATION":"53.2163","BSTAR":"0.00002304600000","MEAN_ELEMENT_THEORY":"SGP4","MEAN_MOTION_DDOT":"0.0000000000000","ARG_OF_PERICENTER":"94.2722","EPHEMERIS_TYPE":"0","OBJECT_TYPE":"PAYLOAD","MEAN_ANOMALY":"265.8416","CENTER_NAME":"EARTH","EPOCH":"2023-06-22T19:28:36.124608","OBJECT_ID":"2022-136AP","MEAN_MOTION":"15.08840019","SITE":"AFETR","ECCENTRICITY":"0.00012730","FILE":"3940238","TLE_LINE2":"2 54088  53.2163 102.4504 0001273  94.2722 265.8416 15.08840019 37864"},{"GP_ID":"234451289","REV_AT_EPOCH":"3776","COUNTRY_CODE":"US","TIME_SYSTEM":"UTC","PERIAPSIS":"539.166","MEAN_MOTION_DOT":"-0.00000355","APOAPSIS":"540.348","LAUNCH_DATE":"2022-10-20","OBJECT_NAME":"STARLINK-5143","NORAD_CAT_ID":"54089","SEMIMAJOR_AXIS":"6917.892","CLASSIFICATION_TYPE":"U","ELEMENT_SET_NO":"999","TLE_LINE1":"1 54089U 22136AQ  23173.12702361 -.00000355  00000-0 -42423-5 0  9993","DECAY_DATE":null,"REF_FRAME":"TEME","PERIOD":"95.438","RA_OF_ASC_NODE":"105.2880","TLE_LINE2":"2 54089  53.2190 105.2880 0000855  21.0263 339.0764 15.08836206 37768","FILE":"3939663","ECCENTRICITY":"0.00008550","SITE":"AFETR","OBJECT_ID":"2022-136AQ","MEAN_MOTION":"15.08836206","EPOCH":"2023-06-22T03:02:54.839904","CENTER_NAME":"EARTH","MEAN_ANOMALY":"339.0764","EPHEMERIS_TYPE":"0","OBJECT_TYPE":"PAYLOAD","MEAN_MOTION_DDOT":"0.0000000000000","ARG_OF_PERICENTER":"21.0263","MEAN_ELEMENT_THEORY":"SGP4","BSTAR":"-0.00000424230000","INCLINATION":"53.2190","RCS_SIZE":"LARGE"},{"SITE":"AFETR","OBJECT_ID":"2022-136AR","MEAN_MOTION":"15.08831309","TLE_LINE2":"2 54090  53.2173 106.7965 0002494  79.1759 280.9513 15.08831309 37244","FILE":"3940263","ECCENTRICITY":"0.00024940","MEAN_ANOMALY":"280.9513","EPOCH":"2023-06-21T19:11:17.804832","CENTER_NAME":"EARTH","MEAN_MOTION_DDOT":"0.0000000000000","ARG_OF_PERICENTER":"79.1759","EPHEMERIS_TYPE":"0","OBJECT_TYPE":"PAYLOAD","RCS_SIZE":"LARGE","BSTAR":"-0.00000792670000","INCLINATION":"53.2173","MEAN_ELEMENT_THEORY":"SGP4","APOAPSIS":"541.497","MEAN_MOTION_DOT":"-0.00000415","COUNTRY_CODE":"US","TIME_SYSTEM":"UTC","PERIAPSIS":"538.047","GP_ID":"234490608","REV_AT_EPOCH":"3724","LAUNCH_DATE":"2022-10-20","NORAD_CAT_ID":"54090","OBJECT_NAME":"STARLINK-5177","SEMIMAJOR_AXIS":"6917.907","PERIOD":"95.438","RA_OF_ASC_NODE":"106.7965","ELEMENT_SET_NO":"999","TLE_LINE1":"1 54090U 22136AR  23172.79951163 -.00000415  00000-0 -79267-5 0  9996","DECAY_DATE":null,"REF_FRAME":"TEME","CLASSIFICATION_TYPE":"U"},{"SEMIMAJOR_AXIS":"6917.898","REF_FRAME":"TEME","TLE_LINE1":"1 54091U 22136AS  23173.05068681 -.00000050  00000-0  14945-4 0  9996","ELEMENT_SET_NO":"999","DECAY_DATE":null,"RA_OF_ASC_NODE":"105.5191","PERIOD":"95.438","CLASSIFICATION_TYPE":"U","MEAN_MOTION_DOT":"-0.00000050","APOAPSIS":"540.579","REV_AT_EPOCH":"3775","GP_ID":"234451294","PERIAPSIS":"538.946","TIME_SYSTEM":"UTC","COUNTRY_CODE":"US","NORAD_CAT_ID":"54091","OBJECT_NAME":"STARLINK-5221","LAUNCH_DATE":"2022-10-20","ARG_OF_PERICENTER":"87.4630","MEAN_MOTION_DDOT":"0.0000000000000","OBJECT_TYPE":"PAYLOAD","EPHEMERIS_TYPE":"0","RCS_SIZE":"LARGE","MEAN_ELEMENT_THEORY":"SGP4","INCLINATION":"53.2177","BSTAR":"0.00001494500000","FILE":"3939663","ECCENTRICITY":"0.00011800","TLE_LINE2":"2 54091  53.2177 105.5191 0001180  87.4630 272.6497 15.08834320 37759","OBJECT_ID":"2022-136AS","MEAN_MOTION":"15.08834320","SITE":"AFETR","MEAN_ANOMALY":"272.6497","CENTER_NAME":"EARTH","EPOCH":"2023-06-22T01:12:59.340384"},{"FILE":"3939975","ECCENTRICITY":"0.00013440","TLE_LINE2":"2 54092  53.2170 103.5505 0001344  92.9566 267.1580 15.08830640 37822","OBJECT_ID":"2022-136AT","MEAN_MOTION":"15.08830640","SITE":"AFETR","CENTER_NAME":"EARTH","EPOCH":"2023-06-22T12:45:50.575104","MEAN_ANOMALY":"267.1580","EPHEMERIS_TYPE":"0","OBJECT_TYPE":"PAYLOAD","MEAN_MOTION_DDOT":"0.0000000000000","ARG_OF_PERICENTER":"92.9566","MEAN_ELEMENT_THEORY":"SGP4","INCLINATION":"53.2170","BSTAR":"0.00011928000000","RCS_SIZE":"LARGE","REV_AT_EPOCH":"3782","GP_ID":"234458850","PERIAPSIS":"538.844","TIME_SYSTEM":"UTC","COUNTRY_CODE":"US","MEAN_MOTION_DOT":"0.00001610","APOAPSIS":"540.704","OBJECT_NAME":"STARLINK-5190","NORAD_CAT_ID":"54092","LAUNCH_DATE":"2022-10-20","SEMIMAJOR_AXIS":"6917.909","CLASSIFICATION_TYPE":"U","REF_FRAME":"TEME","DECAY_DATE":null,"TLE_LINE1":"1 54092U 22136AT  23173.53183536  .00001610  00000-0  11928-3 0  9996","ELEMENT_SET_NO":"999","RA_OF_ASC_NODE":"103.5505","PERIOD":"95.438"},{"MEAN_MOTION":"15.08839332","OBJECT_ID":"2022-136AU","SITE":"AFETR","ECCENTRICITY":"0.00010810","FILE":"3939922","TLE_LINE2":"2 54093  53.2172 104.6244 0001081  91.2797 268.8319 15.08839332 37783","MEAN_ANOMALY":"268.8319","CENTER_NAME":"EARTH","EPOCH":"2023-06-22T05:57:45.568512","ARG_OF_PERICENTER":"91.2797","MEAN_MOTION_DDOT":"0.0000000000000","EPHEMERIS_TYPE":"0","OBJECT_TYPE":"PAYLOAD","RCS_SIZE":"LARGE","INCLINATION":"53.2172","BSTAR":"0.00006764400000","MEAN_ELEMENT_THEORY":"SGP4","APOAPSIS":"540.495","MEAN_MOTION_DOT":"0.00000789","PERIAPSIS":"539.000","TIME_SYSTEM":"UTC","COUNTRY_CODE":"US","REV_AT_EPOCH":"3778","GP_ID":"234458229","NORAD_CAT_ID":"54093","OBJECT_NAME":"STARLINK-5213","LAUNCH_DATE":"2022-10-20","SEMIMAJOR_AXIS":"6917.882","RA_OF_ASC_NODE":"104.6244","PERIOD":"95.438","REF_FRAME":"TEME","ELEMENT_SET_NO":"999","TLE_LINE1":"1 54093U 22136AU  23173.24844408  .00000789  00000-0  67644-4 0  9990","DECAY_DATE":null,"CLASSIFICATION_TYPE":"U"},{"EPHEMERIS_TYPE":"0","OBJECT_TYPE":"PAYLOAD","MEAN_MOTION_DDOT":"0.0000000000000","ARG_OF_PERICENTER":"94.0076","MEAN_ELEMENT_THEORY":"SGP4","BSTAR":"0.00000365070000","INCLINATION":"53.2178","RCS_SIZE":"LARGE","TLE_LINE2":"2 54094  53.2178 105.2645 0001203  94.0076 266.1053 15.08837741 37765","FILE":"3939663","ECCENTRICITY":"0.00012030","SITE":"AFETR","OBJECT_ID":"2022-136AV","MEAN_MOTION":"15.08837741","EPOCH":"2023-06-22T02:57:36.235584","CENTER_NAME":"EARTH","MEAN_ANOMALY":"266.1053","SEMIMAJOR_AXIS":"6917.887","CLASSIFICATION_TYPE":"U","DECAY_DATE":null,"TLE_LINE1":"1 54094U 22136AV  23173.12333606 -.00000230  00000-0  36507-5 0  9998","ELEMENT_SET_NO":"999","REF_FRAME":"TEME","PERIOD":"95.438","RA_OF_ASC_NODE":"105.2645","GP_ID":"234451688","REV_AT_EPOCH":"3776","TIME_SYSTEM":"UTC","COUNTRY_CODE":"US","PERIAPSIS":"538.920","MEAN_MOTION_DOT":"-0.00000230","APOAPSIS":"540.585","LAUNCH_DATE":"2022-10-20","NORAD_CAT_ID":"54094","OBJECT_NAME":"STARLINK-5219"},{"CENTER_NAME":"EARTH","EPOCH":"2023-06-21T12:17:54.046176","MEAN_ANOMALY":"270.9543","ECCENTRICITY":"0.00012200","FILE":"3939133","TLE_LINE2":"2 54095  53.2162 107.8456 0001220  89.1589 270.9543 15.08842504 37209","MEAN_MOTION":"15.08842504","OBJECT_ID":"2022-136AW","SITE":"AFETR","MEAN_ELEMENT_THEORY":"SGP4","INCLINATION":"53.2162","BSTAR":"-0.00001899400000","RCS_SIZE":"LARGE","EPHEMERIS_TYPE":"0","OBJECT_TYPE":"PAYLOAD","MEAN_MOTION_DDOT":"0.0000000000000","ARG_OF_PERICENTER":"89.1589","OBJECT_NAME":"STARLINK-5193","NORAD_CAT_ID":"54095","LAUNCH_DATE":"2022-10-20","REV_AT_EPOCH":"3720","GP_ID":"234437374","PERIAPSIS":"538.894","COUNTRY_CODE":"US","TIME_SYSTEM":"UTC","MEAN_MOTION_DOT":"-0.00000590","APOAPSIS":"540.582","CLASSIFICATION_TYPE":"U","REF_FRAME":"TEME","ELEMENT_SET_NO":"999","TLE_LINE1":"1 54095U 22136AW  23172.51243109 -.00000590  00000-0 -18994-4 0  9998","DECAY_DATE":null,"RA_OF_ASC_NODE":"107.8456","PERIOD":"95.437","SEMIMAJOR_AXIS":"6917.873"},{"MEAN_MOTION":"15.08833168","OBJECT_ID":"2022-136AX","SITE":"AFETR","ECCENTRICITY":"0.00018770","FILE":"3939349","TLE_LINE2":"2 54096  53.2160 107.9145 0001877  80.2104 279.9100 15.08833168 37672","MEAN_ANOMALY":"279.9100","CENTER_NAME":"EARTH","EPOCH":"2023-06-21T12:33:49.614624","ARG_OF_PERICENTER":"80.2104","MEAN_MOTION_DDOT":"0.0000000000000","OBJECT_TYPE":"PAYLOAD","EPHEMERIS_TYPE":"0","RCS_SIZE":"LARGE","INCLINATION":"53.2160","BSTAR":"-0.00002171700000","MEAN_ELEMENT_THEORY":"SGP4","APOAPSIS":"541.065","MEAN_MOTION_DOT":"-0.00000634","PERIAPSIS":"538.468","TIME_SYSTEM":"UTC","COUNTRY_CODE":"US","REV_AT_EPOCH":"3767","GP_ID":"234444303","NORAD_CAT_ID":"54096","OBJECT_NAME":"STARLINK-5188","LAUNCH_DATE":"2022-10-20","SEMIMAJOR_AXIS":"6917.901","RA_OF_ASC_NODE":"107.9145","PERIOD":"95.438","REF_FRAME":"TEME","TLE_LINE1":"1 54096U 22136AX  23172.52349091 -.00000634  00000-0 -21717-4 0  9993","ELEMENT_SET_NO":"999","DECAY_DATE":null,"CLASSIFICATION_TYPE":"U"},{"TIME_SYSTEM":"UTC","COUNTRY_CODE":"US","PERIAPSIS":"538.783","GP_ID":"234465649","REV_AT_EPOCH":"3820","APOAPSIS":"540.741","MEAN_MOTION_DOT":"0.00000128","LAUNCH_DATE":"2022-10-20","NORAD_CAT_ID":"54097","OBJECT_NAME":"STARLINK-5197","SEMIMAJOR_AXIS":"6917.897","CLASSIFICATION_TYPE":"U","PERIOD":"95.438","RA_OF_ASC_NODE":"77.6335","TLE_LINE1":"1 54097U 22136AY  23173.71723858  .00000128  00000-0  26130-4 0  9993","ELEMENT_SET_NO":"999","DECAY_DATE":null,"REF_FRAME":"TEME","SITE":"AFETR","OBJECT_ID":"2022-136AY","MEAN_MOTION":"15.08834556","TLE_LINE2":"2 54097  53.2181  77.6335 0001415  90.3082 269.8072 15.08834556 38203","FILE":"3940239","ECCENTRICITY":"0.00014150","EPOCH":"2023-06-22T17:12:49.413312","CENTER_NAME":"EARTH","MEAN_ANOMALY":"269.8072","OBJECT_TYPE":"PAYLOAD","EPHEMERIS_TYPE":"0","MEAN_MOTION_DDOT":"0.0000000000000","ARG_OF_PERICENTER":"90.3082","BSTAR":"0.00002613000000","INCLINATION":"53.2181","MEAN_ELEMENT_THEORY":"SGP4","RCS_SIZE":"LARGE"}];
